{"type":"FeatureCollection","features":[{"type":"Feature","id":0,"geometry":{"type":"Polygon","coordinates":[[[54.229025514000057,17.019018352000046],[54.245847530000049,17.04885282500004],[54.217104458000051,17.104407001000027],[54.22011038900007,17.122620509000058],[54.17047089600004,17.135170816000027],[54.149083816000029,17.124750534000043],[54.130613217000075,17.116628666000054],[54.103451177000068,17.108523396000066],[54.065570620000074,17.092293286000029],[54.04021745600005,17.072864639000045],[53.978450821000081,17.030799705000049],[53.994481675000031,16.999200716000075],[54.010526340000069,16.973397613000031],[54.018436310000027,16.980837251000025],[54.041328129000078,16.989510371000051],[54.061876459000075,16.993546604000073],[54.081520708000028,16.995932049000032],[54.229025514000057,17.019018352000046]]]},"properties":{"FID":0,"Area":0,"Shape_Leng":0.67784328627299995,"Shape_Area":0.0245285062512}}]}